ONEWEB-0210             
1 48787U 21045W   25174.38965462 -.00000121  00000+0 -35469-3 0  9993
2 48787  87.9050 330.6975 0002067 116.5252 243.6091 13.15548518198278
ONEWEB-0214             
1 48788U 21045X   25173.71464208  .00000050  00000+0  98218-4 0  9993
2 48788  87.9050 330.8211 0001800 111.6746 248.4576 13.15548545197025
ONEWEB-0221             
1 48789U 21045Y   25174.40549845  .00000104  00000+0  24090-3 0  9998
2 48789  87.9053 330.7119 0002096  97.2628 262.8741 13.15548023198342
ONEWEB-0213             
1 48790U 21045Z   25174.39440299 -.00000008  00000+0 -56470-4 0  9994
2 48790  87.9049 330.7209 0002041 103.7190 256.4168 13.15549475198395
ONEWEB-0212             
1 48791U 21045AA  25173.83902403 -.00000145  00000+0 -41991-3 0  9996
2 48791  87.9048 330.8165 0001877  94.7222 265.4123 13.15547384197182
ONEWEB-0227             
1 48792U 21045AB  25174.37063700  .00000036  00000+0  61422-4 0  9994
2 48792  87.9055 330.7283 0001955  97.5685 262.5667 13.15549070198335
ONEWEB-0226             
1 48793U 21045AC  25174.36428732  .00000106  00000+0  24718-3 0  9998
2 48793  87.9052 330.7335 0001930 107.6184 252.5157 13.15547421198297
ONEWEB-0224             
1 48794U 21045AD  25174.40391013  .00000034  00000+0  55193-4 0  9997
2 48794  87.9057 330.7618 0002776  88.7477 271.3972 13.15548648198229
